STARLINK-36791
1 68111U 26044L   26090.82203089 -.00809645  00000+0 -92669-2 0  9999
2 68111  97.2850  52.0454 0000759 179.5907 180.5354 15.64598894  4963
